NORAD_CAT_ID,OBJECT_NAME,OBJECT_TYPE,EPOCH,MEAN_MOTION,ECCENTRICITY,INCLINATION,RA_OF_ASC_NODE,ARG_OF_PERICENTER,MEAN_ANOMALY,BSTAR,MEAN_MOTION_DOT,MEAN_MOTION_DDOT,TLE_LINE0,TLE_LINE1,TLE_LINE2,SEMIMAJOR_AXIS,PERIOD,APOGEE,PERIGEE,DECAYED
52665.0,STARLINK-4064,PAYLOAD,2022-09-03 22:00:00,15.08884402,0.0002573,53.2185,152.7168,63.2978,263.6191,-0.0039308,-0.00062385,0.0,0 STARLINK-4064,1 52665U 22053K   22246.91667824 -.00062385  00000-0 -39308-2 0  9996,2 52665  53.2185 152.7168 0002573  63.2978 263.6191 15.08884402  1304,6917.745,95.435,541.39,537.83,0.0
52665.0,STARLINK-4064,PAYLOAD,2022-09-04 12:00:00,15.08844869,0.000246,53.2185,150.0975,63.1037,194.1417,0.00052859,8.136e-05,0.0,0 STARLINK-4064,1 52665U 22053K   22247.50001157  .00008136  00000-0  52859-3 0  9992,2 52665  53.2185 150.0975 0002460  63.1037 194.1417 15.08844869 17478,6917.866,95.437,541.432,538.029,0.0
52665.0,STARLINK-4064,PAYLOAD,2022-09-04 14:00:01,15.08800573,0.0002362,53.2183,149.7231,63.5358,286.6797,0.0039488,0.00063053,0.0,0 STARLINK-4064,1 52665U 22053K   22247.58335648  .00063053  00000-0  39488-2 0  9996,2 52665  53.2183 149.7231 0002362  63.5358 286.6797 15.08800573  1304,6918.001,95.44,541.5,538.232,0.0
52665.0,STARLINK-4064,PAYLOAD,2022-09-04 20:00:01,15.08862519,0.0002381999999999,53.2185,148.6016,63.7853,205.0366,-0.002692,-0.00042905,0.0,0 STARLINK-4064,1 52665U 22053K   22247.83334491 -.00042905  00000-0 -26920-2 0  9991,2 52665  53.2185 148.6016 0002382  63.7853 205.0366 15.08862519  1304,6917.812,95.436,541.3240000000002,538.029,0.0
52665.0,STARLINK-4064,PAYLOAD,2022-09-05 04:00:00,15.08795914,0.0002435,53.2186,147.1067,57.4744,222.956,0.0039111999999999,0.00062436,0.0,0 STARLINK-4064,1 52665U 22053K   22248.16667824  .00062436  00000-0  39112-2 0  9993,2 52665  53.2186 147.1067 0002435  57.4744 222.9560 15.08795914 17577,6918.015,95.44,541.565,538.196,0.0
52665.0,STARLINK-4064,PAYLOAD,2022-09-05 12:00:00,15.08826027,0.0002279999999999,53.2189,145.6086,61.1813,230.8219,0.0013492,0.00021242,0.0,0 STARLINK-4064,1 52665U 22053K   22248.50001157  .00021242  00000-0  13492-2 0  9995,2 52665  53.2189 145.6086 0002280  61.1813 230.8219 15.08826027 17626,6917.9230000000025,95.438,541.365,538.211,0.0
52665.0,STARLINK-4064,PAYLOAD,2022-09-05 14:00:01,15.08820782,0.0002239,53.2187,145.2342,62.3322,322.5705,0.0021881,0.0003469,0.0,0 STARLINK-4064,1 52665U 22053K   22248.58334491  .00034690  00000-0  21881-2 0  9995,2 52665  53.2187 145.2342 0002239  62.3322 322.5705 15.08820782  1306,6917.939,95.439,541.3530000000002,538.255,0.0
52665.0,STARLINK-4064,PAYLOAD,2022-09-05 22:00:00,15.08834002,0.0002339,53.2189,143.7393,59.9581,336.5277,-0.0013863,-0.00022281,0.0,0 STARLINK-4064,1 52665U 22053K   22248.91667824 -.00022281  00000-0 -13863-2 0  9997,2 52665  53.2189 143.7393 0002339  59.9581 336.5277 15.08834002  1306,6917.899,95.438,541.382,538.146,0.0
52665.0,STARLINK-4064,PAYLOAD,2022-09-06 04:00:00,15.08810584,0.0002355,53.2191,142.6179,55.9293,259.2417,0.0019633,0.00031072,0.0,0 STARLINK-4064,1 52665U 22053K   22249.16667824  .00031072  00000-0  19633-2 0  9992,2 52665  53.2191 142.6179 0002355  55.9293 259.2417 15.08810584 17722,6917.97,95.439,541.464,538.206,0.0
52665.0,STARLINK-4064,PAYLOAD,2022-09-06 12:00:00,15.08801656,0.0002194,53.2195,141.1199,59.8672,266.8889,0.0014506999999999,0.00022851,0.0,0 STARLINK-4064,1 52665U 22053K   22249.50001157  .00022851  00000-0  14507-2 0  9991,2 52665  53.2195 141.1199 0002194  59.8672 266.8889 15.08801656 17779,6917.998000000001,95.44,541.38,538.345,0.0
52665.0,STARLINK-4064,PAYLOAD,2022-09-06 14:00:01,15.08786862,0.0002163,53.2194,140.7456,60.5216,359.1292,0.0035986999999999,0.00057369,0.0,0 STARLINK-4064,1 52665U 22053K   22249.58334491  .00057369  00000-0  35987-2 0  9996,2 52665  53.2194 140.7456 0002163  60.5216 359.1292 15.08786862  1305,6918.043000000002,95.441,541.404,538.411,0.0
52665.0,STARLINK-4064,PAYLOAD,2022-09-06 22:00:00,15.08833199,0.0002316999999999,53.2188,139.2509,58.6639,12.5412,-0.00099643,-0.00016109,0.0,0 STARLINK-4064,1 52665U 22053K   22249.91667824 -.00016109  00000-0 -99643-3 0  9991,2 52665  53.2188 139.2509 0002317  58.6639  12.5412 15.08833199  1308,6917.901,95.438,541.369,538.163,0.0
52665.0,STARLINK-4064,PAYLOAD,2022-09-07 14:00:01,15.08819684,0.0002222,53.218,136.257,62.2643,32.1144,0.0033904,0.00054055,0.0,0 STARLINK-4064,1 52665U 22053K   22250.58334491  .00054055  00000-0  33904-2 0  9994,2 52665  53.2180 136.2570 0002222  62.2643  32.1144 15.08819684 17946,6917.941999999999,95.439,541.345,538.27,0.0
52665.0,STARLINK-4064,PAYLOAD,2022-09-07 22:00:00,15.0886311,0.0002352,53.2182,134.7623,59.4892,46.4816,-0.0011062,-0.00017862,0.0,0 STARLINK-4064,1 52665U 22053K   22250.91667824 -.00017862  00000-0 -11062-2 0  9998,2 52665  53.2182 134.7623 0002352  59.4892  46.4816 15.08863110  1308,6917.81,95.436,541.302,538.048,0.0
52665.0,STARLINK-4064,PAYLOAD,2022-09-08 06:00:00,15.08866195,0.0002307,53.218,133.2659,56.8876,60.695,-0.0021805,-0.0003485,0.0,0 STARLINK-4064,1 52665U 22053K   22251.25001157 -.00034850  00000-0 -21805-2 0  9999,2 52665  53.2180 133.2659 0002307  56.8876  60.6950 15.08866195 18044,6917.8,95.436,541.261,538.069,0.0
52665.0,STARLINK-4064,PAYLOAD,2022-09-08 14:00:01,15.088243,0.0002130999999999,53.2183,131.7682,62.4931,66.7025,0.0026878,0.0004273,0.0,0 STARLINK-4064,1 52665U 22053K   22251.58334491  .00042730  00000-0  26878-2 0  9994,2 52665  53.2183 131.7682 0002131  62.4931  66.7025 15.08824300  1309,6917.928000000001,95.439,541.268,538.319,0.0
52665.0,STARLINK-4064,PAYLOAD,2022-09-08 22:00:00,15.08854944,0.0002207,53.2182,130.2734,58.7931,82.0006,-0.0029356,-0.00046726,0.0,0 STARLINK-4064,1 52665U 22053K   22251.91667824 -.00046726  00000-0 -29356-2 0  9995,2 52665  53.2182 130.2734 0002207  58.7931  82.0006 15.08854944  1309,6917.835,95.437,541.226,538.173,0.0
52665.0,STARLINK-4064,PAYLOAD,2022-09-09 14:00:01,15.08828006,0.0002032999999999,53.2179,127.2793,63.5917,100.3934,0.0029016,0.00046179,0.0,0 STARLINK-4064,1 52665U 22053K   22252.58334491  .00046179  00000-0  29016-2 0  9993,2 52665  53.2179 127.2793 0002033  63.5917 100.3934 15.08828006  1305,6917.917,95.438,541.188,538.376,0.0
52665.0,STARLINK-4064,PAYLOAD,2022-09-09 22:00:00,15.08864506,0.0002133999999999,53.2177,125.7846,59.6438,115.9421,-0.0013366,-0.00021512,0.0,0 STARLINK-4064,1 52665U 22053K   22252.91667824 -.00021512  00000-0 -13366-2 0  9996,2 52665  53.2177 125.7846 0002134  59.6438 115.9421 15.08864506  1309,6917.805,95.436,541.1469999999998,538.194,0.0
52665.0,STARLINK-4064,PAYLOAD,2022-09-10 04:00:00,15.08854017,0.0002077,53.2173,124.6625,55.8664,38.4256,-0.0015450999999999,-0.00024804,0.0,0 STARLINK-4064,1 52665U 22053K   22253.16667824 -.00024804  00000-0 -15451-2 0  9998,2 52665  53.2173 124.6625 0002077  55.8664  38.4256 15.08854017 18335,6917.8380000000025,95.437,541.139,538.266,0.0
52665.0,STARLINK-4064,PAYLOAD,2022-09-10 14:00:01,15.0880622,0.0001844999999999,53.2172,122.7902,63.0234,135.77200000000002,0.0019274,0.00030492,0.0,0 STARLINK-4064,1 52665U 22053K   22253.58334491  .00030492  00000-0  19274-2 0  9990,2 52665  53.2172 122.7902 0001845  63.0234 135.7720 15.08806220  1306,6917.984,95.44,541.125,538.572,0.0
52665.0,STARLINK-4064,PAYLOAD,2022-09-10 22:00:00,15.08822691,0.0001986,53.2169,121.2956,58.153,152.2122,-0.00010688,-1.988e-05,0.0,0 STARLINK-4064,1 52665U 22053K   22253.91667824 -.00001988  00000-0 -10688-3 0  9997,2 52665  53.2169 121.2956 0001986  58.1530 152.2122 15.08822691  1305,6917.933000000001,95.439,541.172,538.424,0.0
52665.0,STARLINK-4064,PAYLOAD,2022-09-11 06:00:00,15.08847595,0.0001955999999999,53.2165,119.7986,57.8266,164.1102,-0.0012602,-0.00020293,0.0,0 STARLINK-4064,1 52665U 22053K   22254.25001157 -.00020293  00000-0 -12602-2 0  9993,2 52665  53.2165 119.7986 0001956  57.8266 164.1102 15.08847595 18493,6917.857,95.437,541.075,538.369,0.0
52665.0,STARLINK-4064,PAYLOAD,2022-09-11 14:00:01,15.08830789,0.0001882,53.2165,118.301,64.503,169.0307,0.0024890999999999,0.00039539,0.0,0 STARLINK-4064,1 52665U 22053K   22254.58334491  .00039539  00000-0  24891-2 0  9993,2 52665  53.2165 118.3010 0001882  64.5030 169.0307 15.08830789  1308,6917.909000000002,95.438,541.075,538.472,0.0
52665.0,STARLINK-4064,PAYLOAD,2022-09-11 20:00:01,15.08859321,0.0001965,53.2164,117.18,60.3631,91.8644,-0.0013958,-0.00022446,0.0,0 STARLINK-4064,1 52665U 22053K   22254.83334491 -.00022446  00000-0 -13958-2 0  9994,2 52665  53.2164 117.1800 0001965  60.3631  91.8644 15.08859321 18581,6917.821,95.436,541.0459999999998,538.327,0.0
52665.0,STARLINK-4064,PAYLOAD,2022-09-11 22:00:00,15.08853743,0.0002002,53.2163,116.8063,58.7912,186.3405,-0.00098404,-0.00015921,0.0,0 STARLINK-4064,1 52665U 22053K   22254.91667824 -.00015921  00000-0 -98404-3 0  9992,2 52665  53.2163 116.8063 0002002  58.7912 186.3405 15.08853743  1302,6917.8380000000025,95.437,541.0880000000002,538.318,0.0
52665.0,STARLINK-4064,PAYLOAD,2022-09-12 14:00:01,15.08843539,0.0001774,53.2162,113.8114,62.6442,205.6916,-0.00045839,-7.577e-05,0.0,0 STARLINK-4064,1 52665U 22053K   22255.58334491 -.00007577  00000-0 -45839-3 0  9999,2 52665  53.2162 113.8114 0001774  62.6442 205.6916 15.08843539  1306,6917.87,95.437,540.962,538.507,0.0
52665.0,STARLINK-4064,PAYLOAD,2022-09-12 22:00:00,15.08820947,0.0001891,53.2162,112.3168,55.3486,224.588,0.0008456,0.00013188,0.0,0 STARLINK-4064,1 52665U 22053K   22255.91667824  .00013188  00000-0  84560-3 0  9992,2 52665  53.2162 112.3168 0001891  55.3486 224.5880 15.08820947 18740,6917.939,95.439,541.112,538.495,0.0
52665.0,STARLINK-4064,PAYLOAD,2022-09-13 14:00:01,15.08846474,0.0001737,53.2165,109.322,60.4701,242.6291,-0.00064919,-0.00010607,0.0,0 STARLINK-4064,1 52665U 22053K   22256.58334491 -.00010607  00000-0 -64919-3 0  9998,2 52665  53.2165 109.3220 0001737  60.4701 242.6291 15.08846474  1308,6917.861,95.437,540.927,538.524,0.0
